[{"OBJECT_NAME":"STARLINK-31426","OBJECT_ID":"2024-049U","EPOCH":"2026-03-09T08:41:40.495200","MEAN_MOTION":15.27588405,"ECCENTRICITY":0.00010298,"INCLINATION":43.0019,"RA_OF_ASC_NODE":145.5804,"ARG_OF_PERICENTER":287.9393,"MEAN_ANOMALY":72.1347,"EPHEMERIS_TYPE":0,"CLASSIFICATION_TYPE":"U","NORAD_CAT_ID":59249,"ELEMENT_SET_NO":999,"REV_AT_EPOCH":11234,"BSTAR":-0.00017413716,"MEAN_MOTION_DOT":-5.052e-5,"MEAN_MOTION_DDOT":0},{"OBJECT_NAME":"COSMOS 2588","OBJECT_ID":"2025-109A","EPOCH":"2026-03-09T19:28:59.107008","MEAN_MOTION":15.29122656,"ECCENTRICITY":0.0005019,"INCLINATION":72.9704,"RA_OF_ASC_NODE":73.5401,"ARG_OF_PERICENTER":308.678,"MEAN_ANOMALY":51.3966,"EPHEMERIS_TYPE":0,"CLASSIFICATION_TYPE":"U","NORAD_CAT_ID":64095,"ELEMENT_SET_NO":999,"REV_AT_EPOCH":4442,"BSTAR":0.00032611,"MEAN_MOTION_DOT":9.169e-5,"MEAN_MOTION_DDOT":0}]
